start=new Date('2023-01-12T00:00:00.000Z').valueOf();
sats=[{"ECCENTRICITY":"0.00017450","TLE_LINE1":"1 53704U 22107E   23011.73772881  .00000126  00000-0  26003-4 0  9995","OBJECT_ID":"2022-107E","DECAY_DATE":null,"RA_OF_ASC_NODE":"20.1677","PERIOD":"95.437","EPOCH":"2023-01-11T17:42:19.769184","FILE":"3740419","MEAN_ELEMENT_THEORY":"SGP4","RCS_SIZE":"LARGE","MEAN_ANOMALY":"299.8960","BSTAR":"0.00002600300000","TIME_SYSTEM":"UTC","CLASSIFICATION_TYPE":"U","LAUNCH_DATE":"2022-09-05","PERIAPSIS":"538.535","MEAN_MOTION":"15.08841186","REF_FRAME":"TEME","OBJECT_TYPE":"PAYLOAD","MEAN_MOTION_DDOT":"0.0000000000000","INCLINATION":"53.2170","SITE":"AFETR","TLE_LINE2":"2 53704  53.2170  20.1677 0001745  60.2206 299.8960 15.08841186 20631","EPHEMERIS_TYPE":"0","NORAD_CAT_ID":"53704","MEAN_MOTION_DOT":"0.00000126","REV_AT_EPOCH":"2063","SEMIMAJOR_AXIS":"6917.877","GP_ID":"222826708","ELEMENT_SET_NO":"999","OBJECT_NAME":"STARLINK-4714","APOAPSIS":"540.949","ARG_OF_PERICENTER":"60.2206","CENTER_NAME":"EARTH","COUNTRY_CODE":"US"},{"CLASSIFICATION_TYPE":"U","MEAN_ANOMALY":"265.1081","BSTAR":"-0.00011176000000","TIME_SYSTEM":"UTC","RCS_SIZE":"LARGE","OBJECT_TYPE":"PAYLOAD","LAUNCH_DATE":"2022-09-05","MEAN_MOTION":"15.08826615","PERIAPSIS":"538.815","REF_FRAME":"TEME","RA_OF_ASC_NODE":"20.1468","DECAY_DATE":null,"OBJECT_ID":"2022-107F","TLE_LINE1":"1 53705U 22107F   23011.73405417 -.00002065  00000-0 -11176-3 0  9994","ECCENTRICITY":"0.00014040","MEAN_ELEMENT_THEORY":"SGP4","FILE":"3740419","EPOCH":"2023-01-11T17:37:02.280288","PERIOD":"95.438","OBJECT_NAME":"STARLINK-4717","ELEMENT_SET_NO":"999","GP_ID":"222827406","SEMIMAJOR_AXIS":"6917.921","COUNTRY_CODE":"US","ARG_OF_PERICENTER":"95.0072","CENTER_NAME":"EARTH","APOAPSIS":"540.758","TLE_LINE2":"2 53705  53.2182  20.1468 0001404  95.0072 265.1081 15.08826615 20799","SITE":"AFETR","MEAN_MOTION_DDOT":"0.0000000000000","INCLINATION":"53.2182","REV_AT_EPOCH":"2079","MEAN_MOTION_DOT":"-0.00002065","NORAD_CAT_ID":"53705","EPHEMERIS_TYPE":"0"},{"GP_ID":"222828091","ELEMENT_SET_NO":"999","SEMIMAJOR_AXIS":"6917.892","OBJECT_NAME":"STARLINK-4716","COUNTRY_CODE":"US","APOAPSIS":"541.138","CENTER_NAME":"EARTH","ARG_OF_PERICENTER":"53.5700","INCLINATION":"53.2176","MEAN_MOTION_DDOT":"0.0000000000000","SITE":"AFETR","TLE_LINE2":"2 53706  53.2176  20.0883 0001997  53.5700 306.5476 15.08836219 20796","NORAD_CAT_ID":"53706","REV_AT_EPOCH":"2079","MEAN_MOTION_DOT":"-0.00000411","EPHEMERIS_TYPE":"0","RCS_SIZE":"LARGE","BSTAR":"-0.00000773010000","MEAN_ANOMALY":"306.5476","TIME_SYSTEM":"UTC","CLASSIFICATION_TYPE":"U","MEAN_MOTION":"15.08836219","LAUNCH_DATE":"2022-09-05","PERIAPSIS":"538.375","REF_FRAME":"TEME","OBJECT_TYPE":"PAYLOAD","OBJECT_ID":"2022-107G","TLE_LINE1":"1 53706U 22107G   23011.72394749 -.00000411  00000-0 -77301-5 0  9996","ECCENTRICITY":"0.00019970","RA_OF_ASC_NODE":"20.0883","DECAY_DATE":null,"PERIOD":"95.438","EPOCH":"2023-01-11T17:22:29.063136","MEAN_ELEMENT_THEORY":"SGP4","FILE":"3740419"},{"OBJECT_TYPE":"PAYLOAD","MEAN_MOTION":"15.08836661","LAUNCH_DATE":"2022-09-05","PERIAPSIS":"538.624","REF_FRAME":"TEME","CLASSIFICATION_TYPE":"U","TIME_SYSTEM":"UTC","BSTAR":"0.00004833400000","MEAN_ANOMALY":"284.5736","RCS_SIZE":"LARGE","MEAN_ELEMENT_THEORY":"SGP4","FILE":"3740419","EPOCH":"2023-01-11T17:00:36.133920","PERIOD":"95.438","RA_OF_ASC_NODE":"5.0374","DECAY_DATE":null,"TLE_LINE1":"1 53707U 22107H   23011.70875155  .00000481  00000-0  48334-4 0  9998","OBJECT_ID":"2022-107H","ECCENTRICITY":"0.00016360","COUNTRY_CODE":"US","ARG_OF_PERICENTER":"75.5438","CENTER_NAME":"EARTH","APOAPSIS":"540.887","OBJECT_NAME":"STARLINK-4667","ELEMENT_SET_NO":"999","GP_ID":"222826477","SEMIMAJOR_AXIS":"6917.891","MEAN_MOTION_DOT":"0.00000481","REV_AT_EPOCH":"2100","NORAD_CAT_ID":"53707","EPHEMERIS_TYPE":"0","TLE_LINE2":"2 53707  53.2186   5.0374 0001636  75.5438 284.5736 15.08836661 21008","SITE":"AFETR","MEAN_MOTION_DDOT":"0.0000000000000","INCLINATION":"53.2186"},{"OBJECT_TYPE":"PAYLOAD","LAUNCH_DATE":"2022-09-05","MEAN_MOTION":"15.08840367","PERIAPSIS":"538.979","REF_FRAME":"TEME","CLASSIFICATION_TYPE":"U","TIME_SYSTEM":"UTC","BSTAR":"-0.00005913100000","MEAN_ANOMALY":"267.3793","RCS_SIZE":"LARGE","MEAN_ELEMENT_THEORY":"SGP4","FILE":"3740419","EPOCH":"2023-01-11T16:12:58.716576","PERIOD":"95.438","RA_OF_ASC_NODE":"5.5369","DECAY_DATE":null,"OBJECT_ID":"2022-107J","TLE_LINE1":"1 53708U 22107J   23011.67567959 -.00001229  00000-0 -59131-4 0  9995","ECCENTRICITY":"0.00011060","COUNTRY_CODE":"US","CENTER_NAME":"EARTH","ARG_OF_PERICENTER":"92.7325","APOAPSIS":"540.509","OBJECT_NAME":"STARLINK-4694","ELEMENT_SET_NO":"999","GP_ID":"222827176","SEMIMAJOR_AXIS":"6917.879","MEAN_MOTION_DOT":"-0.00001229","REV_AT_EPOCH":"2099","NORAD_CAT_ID":"53708","EPHEMERIS_TYPE":"0","TLE_LINE2":"2 53708  53.2156   5.5369 0001106  92.7325 267.3793 15.08840367 20990","SITE":"AFETR","MEAN_MOTION_DDOT":"0.0000000000000","INCLINATION":"53.2156"},{"NORAD_CAT_ID":"53709","MEAN_MOTION_DOT":"0.00001189","REV_AT_EPOCH":"2042","EPHEMERIS_TYPE":"0","MEAN_MOTION_DDOT":"0.0000000000000","INCLINATION":"53.2185","SITE":"AFETR","TLE_LINE2":"2 53709  53.2185  24.5595 0002441  28.9699 331.1427 15.07217799 20421","COUNTRY_CODE":"US","APOAPSIS":"546.398","CENTER_NAME":"EARTH","ARG_OF_PERICENTER":"28.9699","ELEMENT_SET_NO":"999","GP_ID":"222827865","SEMIMAJOR_AXIS":"6922.843","OBJECT_NAME":"STARLINK-4685","PERIOD":"95.540","EPOCH":"2023-01-11T18:00:46.441728","MEAN_ELEMENT_THEORY":"SGP4","FILE":"3740419","OBJECT_ID":"2022-107K","TLE_LINE1":"1 53709U 22107K   23011.75053752  .00001189  00000-0  96727-4 0  9991","ECCENTRICITY":"0.00024410","RA_OF_ASC_NODE":"24.5595","DECAY_DATE":null,"PERIAPSIS":"543.018","LAUNCH_DATE":"2022-09-05","MEAN_MOTION":"15.07217799","REF_FRAME":"TEME","OBJECT_TYPE":"PAYLOAD","RCS_SIZE":"LARGE","BSTAR":"0.00009672700000","MEAN_ANOMALY":"331.1427","TIME_SYSTEM":"UTC","CLASSIFICATION_TYPE":"U"},{"OBJECT_ID":"2022-107M","TLE_LINE1":"1 53711U 22107M   23011.75229672  .00006410  00000-0  43915-3 0  9992","ECCENTRICITY":"0.00020230","RA_OF_ASC_NODE":"24.5612","DECAY_DATE":null,"PERIOD":"95.540","EPOCH":"2023-01-11T18:03:18.436608","MEAN_ELEMENT_THEORY":"SGP4","FILE":"3740419","RCS_SIZE":"LARGE","BSTAR":"0.00043915000000","MEAN_ANOMALY":"304.3812","TIME_SYSTEM":"UTC","CLASSIFICATION_TYPE":"U","PERIAPSIS":"543.304","LAUNCH_DATE":"2022-09-05","REF_FRAME":"TEME","MEAN_MOTION":"15.07219024","OBJECT_TYPE":"PAYLOAD","MEAN_MOTION_DDOT":"0.0000000000000","INCLINATION":"53.2185","SITE":"AFETR","TLE_LINE2":"2 53711  53.2185  24.5612 0002023  55.7371 304.3812 15.07219024 20428","NORAD_CAT_ID":"53711","REV_AT_EPOCH":"2042","MEAN_MOTION_DOT":"0.00006410","EPHEMERIS_TYPE":"0","ELEMENT_SET_NO":"999","GP_ID":"222827634","SEMIMAJOR_AXIS":"6922.840","OBJECT_NAME":"STARLINK-4627","COUNTRY_CODE":"US","APOAPSIS":"546.105","ARG_OF_PERICENTER":"55.7371","CENTER_NAME":"EARTH"},{"CLASSIFICATION_TYPE":"U","BSTAR":"0.00004687500000","MEAN_ANOMALY":"313.3530","TIME_SYSTEM":"UTC","RCS_SIZE":"LARGE","OBJECT_TYPE":"PAYLOAD","PERIAPSIS":"543.349","LAUNCH_DATE":"2022-09-05","MEAN_MOTION":"15.07215977","REF_FRAME":"TEME","DECAY_DATE":null,"RA_OF_ASC_NODE":"24.5596","ECCENTRICITY":"0.00019720","TLE_LINE1":"1 53712U 22107N   23011.75007460  .00000430  00000-0  46875-4 0  9997","OBJECT_ID":"2022-107N","FILE":"3740419","MEAN_ELEMENT_THEORY":"SGP4","EPOCH":"2023-01-11T18:00:06.445440","PERIOD":"95.540","OBJECT_NAME":"STARLINK-4683","SEMIMAJOR_AXIS":"6922.849","ELEMENT_SET_NO":"999","GP_ID":"222826946","CENTER_NAME":"EARTH","ARG_OF_PERICENTER":"46.7625","APOAPSIS":"546.079","COUNTRY_CODE":"US","TLE_LINE2":"2 53712  53.2206  24.5596 0001972  46.7625 313.3530 15.07215977 20440","SITE":"AFETR","INCLINATION":"53.2206","MEAN_MOTION_DDOT":"0.0000000000000","EPHEMERIS_TYPE":"0","MEAN_MOTION_DOT":"0.00000430","REV_AT_EPOCH":"2044","NORAD_CAT_ID":"53712"},{"PERIOD":"95.438","EPOCH":"2023-01-11T17:51:29.157408","FILE":"3740419","MEAN_ELEMENT_THEORY":"SGP4","ECCENTRICITY":"0.00025670","OBJECT_ID":"2022-107P","TLE_LINE1":"1 53713U 22107P   23011.74408747 -.00001408  00000-0 -70340-4 0  9992","DECAY_DATE":null,"RA_OF_ASC_NODE":"29.4869","LAUNCH_DATE":"2022-09-05","PERIAPSIS":"537.985","REF_FRAME":"TEME","MEAN_MOTION":"15.08834818","OBJECT_TYPE":"PAYLOAD","RCS_SIZE":"LARGE","MEAN_ANOMALY":"327.5076","BSTAR":"-0.00007034000000","TIME_SYSTEM":"UTC","CLASSIFICATION_TYPE":"U","EPHEMERIS_TYPE":"0","NORAD_CAT_ID":"53713","REV_AT_EPOCH":"2035","MEAN_MOTION_DOT":"-0.00001408","MEAN_MOTION_DDOT":"0.0000000000000","INCLINATION":"53.2185","SITE":"AFETR","TLE_LINE2":"2 53713  53.2185  29.4869 0002567  32.6074 327.5076 15.08834818 20351","APOAPSIS":"541.537","ARG_OF_PERICENTER":"32.6074","CENTER_NAME":"EARTH","COUNTRY_CODE":"US","SEMIMAJOR_AXIS":"6917.896","GP_ID":"222826709","ELEMENT_SET_NO":"999","OBJECT_NAME":"STARLINK-4698"},{"SEMIMAJOR_AXIS":"6918.127","ELEMENT_SET_NO":"999","GP_ID":"222827407","OBJECT_NAME":"STARLINK-4688","CENTER_NAME":"EARTH","ARG_OF_PERICENTER":"55.5096","APOAPSIS":"541.420","COUNTRY_CODE":"US","SITE":"AFETR","MEAN_MOTION_DDOT":"0.0000000000000","INCLINATION":"53.2174","TLE_LINE2":"2 53714  53.2174   3.8998 0002065  55.5096  94.8405 15.08759383  1307","EPHEMERIS_TYPE":"0","MEAN_MOTION_DOT":"0.00119602","REV_AT_EPOCH":"130","NORAD_CAT_ID":"53714","RCS_SIZE":"LARGE","CLASSIFICATION_TYPE":"U","TIME_SYSTEM":"UTC","BSTAR":"0.00742330000000","MEAN_ANOMALY":"94.8405","LAUNCH_DATE":"2022-09-05","MEAN_MOTION":"15.08759383","PERIAPSIS":"538.563","REF_FRAME":"TEME","OBJECT_TYPE":"PAYLOAD","ECCENTRICITY":"0.00020650","OBJECT_ID":"2022-107Q","TLE_LINE1":"1 53714U 22107Q   23011.91667824  .00119602  00000-0  74233-2 0  9992","DECAY_DATE":null,"RA_OF_ASC_NODE":"3.8998","EPOCH":"2023-01-11T22:00:00.999936","PERIOD":"95.443","FILE":"3740419","MEAN_ELEMENT_THEORY":"SGP4"}];
